STARLINK-37040          
1 69362U 26123K   26170.67269008  .00098327  00000+0  49482-3 0  9992
2 69362  53.1581 229.0177 0001686  68.9907 291.1296 15.80926573  2434
STARLINK-37582          
1 69363U 26123L   26170.91668981 -.00029888  00000+0 -19162-3 0  9993
2 69363  53.1586 228.1113 0000996  99.8191  56.1247 15.75223368  3590
STARLINK-37309          
1 69364U 26123M   26170.91668981  .00032458  00000+0  16757-3 0  9996
2 69364  53.1578 227.6750 0000715  95.6708 271.9227 15.80846128  3732
STARLINK-37436          
1 69365U 26123N   26170.91668981  .00058465  00000+0  29838-3 0  9997
2 69365  53.1579 227.6387 0001008 103.2320 281.9675 15.80826257  3731
STARLINK-37581          
1 69366U 26123P   26170.66316636  .00106501  00000+0  53526-3 0  9993
2 69366  53.1577 228.9534 0000991  94.5833 265.5303 15.80922992  2434
STARLINK-37683          
1 69367U 26123Q   26170.91668981 -.00023945  00000+0 -15255-3 0  9994
2 69367  53.1588 227.7348 0000753  92.2361 245.8087 15.75228042  3591
STARLINK-37687          
1 69368U 26123R   26170.91668981  .00048575  00000+0  24875-3 0  9997
2 69368  53.1581 227.5856 0001019 108.3671 302.2480 15.80829429  3593
STARLINK-37631          
1 69369U 26123S   26170.91668981  .00030835  00000+0  15943-3 0  9994
2 69369  53.1581 227.5948 0000981  81.5867 324.5121 15.80842778  3649
STARLINK-37673          
1 69370U 26123T   26170.52887071  .00167659  00000+0  83488-3 0  9990
2 69370  53.1574 229.5339 0001395  25.6334 334.4758 15.80917343  2418
STARLINK-37645          
1 69371U 26123U   26170.65718297  .00131000  00000+0  65504-3 0  9998
2 69371  53.1574 228.9120 0001044  65.1331 294.9800 15.80945383  2432
STARLINK-37688          
1 69372U 26123V   26170.59138762  .00103795  00000+0  52176-3 0  9996
2 69372  53.1572 229.2115 0001031 113.6790 246.4341 15.80929329  2426
STARLINK-37685          
1 69373U 26123W   26170.59088036  .00128179  00000+0  64148-3 0  9990
2 69373  53.1575 229.2079 0000785  95.2214 264.8898 15.80936454  2428
STARLINK-37632          
1 69374U 26123X   26170.59013991  .00100082  00000+0  50340-3 0  9991
2 69374  53.1573 229.2027 0000763  87.1275 272.9836 15.80930874  2425
STARLINK-37454          
1 69375U 26123Y   26170.58904562  .00112020  00000+0  56237-3 0  9990
2 69375  53.1573 229.1947 0001357  70.6358 289.4812 15.80926093  2420
STARLINK-37485          
1 69376U 26123Z   26170.65152660  .00157515  00000+0  78459-3 0  9991
2 69376  53.1572 228.8723 0001689  64.6846 295.4351 15.80942223  2430
STARLINK-37439          
1 69377U 26123AA  26170.64440735  .00175751  00000+0  87284-3 0  9992
2 69377  53.1573 228.8246 0001291  63.6986 296.4170 15.80950782  2434
STARLINK-37376          
1 69378U 26123AB  26170.91668981 -.00018855  00000+0 -11917-3 0  9991
2 69378  53.1596 227.5729 0001041  95.1155 320.1955 15.75225799  3730
STARLINK-37383          
1 69379U 26123AC  26170.64087552  .00188186  00000+0  93268-3 0  9993
2 69379  53.1573 228.7989 0001128  73.6088 286.5059 15.80958332  2437
STARLINK-37411          
1 69380U 26123AD  26170.64576384  .00153119  00000+0  76304-3 0  9991
2 69380  53.1571 228.8322 0001055  88.6766 271.4378 15.80946742  2436
STARLINK-37427          
1 69381U 26123AE  26170.64165987  .00183697  00000+0  91081-3 0  9998
2 69381  53.1574 228.8043 0000960  77.8199 282.2931 15.80962453  2436
QIANFAN-165             
1 69382U 26124A   26170.94222580  .00000058  00000+0  21916-4 0  9996
2 69382  88.9984   1.7286 0003157 115.7160 244.4354 14.16012687  2203
QIANFAN-166             
1 69383U 26124B   26170.93573570  .00000097  00000+0  40973-4 0  9991
2 69383  88.9985   1.7278 0002743 106.2471 253.9019 14.17059872  2207
QIANFAN-167             
1 69384U 26124C   26170.93694764  .00000055  00000+0  20511-4 0  9991
2 69384  88.9984   1.7278 0002220 152.2827 207.8480 14.16526265  2207
QIANFAN-168             
1 69385U 26124D   26170.86004154  .00000078  00000+0  31409-4 0  9995
2 69385  88.9984   1.7349 0003306 127.7064 232.4425 14.17873194  2191
QIANFAN-169             
1 69386U 26124E   26170.92743897  .00000082  00000+0  33112-4 0  9995
2 69386  88.9983   1.7263 0003419 145.3621 214.7791 14.18286803  2203
QIANFAN-170             
1 69387U 26124F   26170.92311028  .00000081  00000+0  31934-4 0  9992
2 69387  88.9983   1.7257 0003247 122.3297 237.8207 14.19183788  2207
QIANFAN-171             
1 69388U 26124G   26170.91846367  .00000375  00000+0  16973-3 0  9992
2 69388  88.9984   1.7249 0002276 169.4713 190.6525 14.20068292  2209
QIANFAN-172             
1 69389U 26124H   26170.92042948  .00000076  00000+0  29084-4 0  9993
2 69389  88.9984   1.7253 0002631 145.9470 214.1889 14.19638445  2205
QIANFAN-173             
1 69390U 26124J   26170.91630879  .00000078  00000+0  29653-4 0  9994
2 69390  88.9984   1.7247 0002958 136.4975 223.6449 14.20509875  2200
QIANFAN-174             
1 69391U 26124K   26170.91257895  .00000115  00000+0  46360-4 0  9994
2 69391  88.9984   1.7241 0003121 143.9819 216.1582 14.20878344  2203
