OBJECT_NAME,OBJECT_ID,EPOCH,MEAN_MOTION,ECCENTRICITY,INCLINATION,RA_OF_ASC_NODE,ARG_OF_PERICENTER,MEAN_ANOMALY,EPHEMERIS_TYPE,CLASSIFICATION_TYPE,NORAD_CAT_ID,ELEMENT_SET_NO,REV_AT_EPOCH,BSTAR,MEAN_MOTION_DOT,MEAN_MOTION_DDOT
STARLINK-37040,2026-123K,2026-06-19T16:08:40.422912,15.80926573,.00016865,53.1581,229.0177,68.9907,291.1296,0,U,69362,999,243,.49482086E-3,.98327E-3,0
STARLINK-37582,2026-123L,2026-06-19T22:00:01.999584,15.75223368,.00009969,53.1586,228.1113,99.8191,56.1247,0,U,69363,999,359,-.19162453E-3,-.29888E-3,0
STARLINK-37309,2026-123M,2026-06-19T22:00:01.999584,15.80846128,.00007151,53.1578,227.6750,95.6708,271.9227,0,U,69364,999,373,.16757434E-3,.32458E-3,0
STARLINK-37436,2026-123N,2026-06-19T22:00:01.999584,15.80826257,.00010082,53.1579,227.6387,103.2320,281.9675,0,U,69365,999,373,.29838387E-3,.58465E-3,0
STARLINK-37581,2026-123P,2026-06-19T15:54:57.573504,15.80922992,.00009911,53.1577,228.9534,94.5833,265.5303,0,U,69366,999,243,.5352598E-3,.106501E-2,0
STARLINK-37683,2026-123Q,2026-06-19T22:00:01.999584,15.75228042,.00007538,53.1588,227.7348,92.2361,245.8087,0,U,69367,999,359,-.15255342E-3,-.23945E-3,0
STARLINK-37687,2026-123R,2026-06-19T22:00:01.999584,15.80829429,.00010198,53.1581,227.5856,108.3671,302.2480,0,U,69368,999,359,.24875411E-3,.48575E-3,0
STARLINK-37631,2026-123S,2026-06-19T22:00:01.999584,15.80842778,.00009816,53.1581,227.5948,81.5867,324.5121,0,U,69369,999,364,.15942517E-3,.30835E-3,0
STARLINK-37673,2026-123T,2026-06-19T12:41:34.429344,15.80917343,.00013956,53.1574,229.5339,25.6334,334.4758,0,U,69370,999,241,.83487791E-3,.167659E-2,0
STARLINK-37645,2026-123U,2026-06-19T15:46:20.608608,15.80945383,.00010448,53.1574,228.9120,65.1331,294.9800,0,U,69371,999,243,.65503708E-3,.131E-2,0
STARLINK-37688,2026-123V,2026-06-19T14:11:35.890368,15.80929329,.00010311,53.1572,229.2115,113.6790,246.4341,0,U,69372,999,242,.52176074E-3,.103795E-2,0
STARLINK-37685,2026-123W,2026-06-19T14:10:52.063104,15.80936454,.00007859,53.1575,229.2079,95.2214,264.8898,0,U,69373,999,242,.64148058E-3,.128179E-2,0
STARLINK-37632,2026-123X,2026-06-19T14:09:48.088224,15.80930874,.00007633,53.1573,229.2027,87.1275,272.9836,0,U,69374,999,242,.50340226E-3,.100082E-2,0
STARLINK-37454,2026-123Y,2026-06-19T14:08:13.541568,15.80926093,.00013574,53.1573,229.1947,70.6358,289.4812,0,U,69375,999,242,.56237139E-3,.11202E-2,0
STARLINK-37485,2026-123Z,2026-06-19T15:38:11.898240,15.80942223,.00016896,53.1572,228.8723,64.6846,295.4351,0,U,69376,999,243,.78459288E-3,.157515E-2,0
STARLINK-37439,2026-123AA,2026-06-19T15:27:56.795040,15.80950782,.00012915,53.1573,228.8246,63.6986,296.4170,0,U,69377,999,243,.87283723E-3,.175751E-2,0
STARLINK-37376,2026-123AB,2026-06-19T22:00:01.999584,15.75225799,.00010419,53.1596,227.5729,95.1155,320.1955,0,U,69378,999,373,-.1191729E-3,-.18855E-3,0
STARLINK-37383,2026-123AC,2026-06-19T15:22:51.644928,15.80958332,.00011287,53.1573,228.7989,73.6088,286.5059,0,U,69379,999,243,.93267655E-3,.188186E-2,0
STARLINK-37411,2026-123AD,2026-06-19T15:29:53.995776,15.80946742,.0001055,53.1571,228.8322,88.6766,271.4378,0,U,69380,999,243,.76303813E-3,.153119E-2,0
STARLINK-37427,2026-123AE,2026-06-19T15:23:59.412768,15.80962453,.00009604,53.1574,228.8043,77.8199,282.2931,0,U,69381,999,243,.91081343E-3,.183697E-2,0
QIANFAN-165,2026-124A,2026-06-19T22:36:48.309120,14.16012687,.00031577,88.9984,1.7286,115.7160,244.4354,0,U,69382,999,220,.2191551E-4,.58E-6,0
QIANFAN-166,2026-124B,2026-06-19T22:27:27.564480,14.17059872,.00027433,88.9985,1.7278,106.2471,253.9019,0,U,69383,999,220,.40972923E-4,.97E-6,0
QIANFAN-167,2026-124C,2026-06-19T22:29:12.276096,14.16526265,.00022203,88.9984,1.7278,152.2827,207.8480,0,U,69384,999,220,.20510966E-4,.55E-6,0
QIANFAN-168,2026-124D,2026-06-19T20:38:27.589056,14.17873194,.00033062,88.9984,1.7349,127.7064,232.4425,0,U,69385,999,219,.31408838E-4,.78E-6,0
QIANFAN-169,2026-124E,2026-06-19T22:15:30.727008,14.18286803,.00034199,88.9983,1.7263,145.3621,214.7791,0,U,69386,999,220,.33111902E-4,.82E-6,0
QIANFAN-170,2026-124F,2026-06-19T22:09:16.728192,14.19183788,.00032479,88.9983,1.7257,122.3297,237.8207,0,U,69387,999,220,.31934145E-4,.81E-6,0
QIANFAN-171,2026-124G,2026-06-19T22:02:35.261088,14.20068292,.00022768,88.9984,1.7249,169.4713,190.6525,0,U,69388,999,220,.1697297E-3,.375E-5,0
QIANFAN-172,2026-124H,2026-06-19T22:05:25.107072,14.19638445,.00026311,88.9984,1.7253,145.9470,214.1889,0,U,69389,999,220,.29084091E-4,.76E-6,0
QIANFAN-173,2026-124J,2026-06-19T21:59:29.079456,14.20509875,.00029581,88.9984,1.7247,136.4975,223.6449,0,U,69390,999,220,.29652712E-4,.78E-6,0
QIANFAN-174,2026-124K,2026-06-19T21:54:06.821280,14.20878344,.00031211,88.9984,1.7241,143.9819,216.1582,0,U,69391,999,220,.46359559E-4,.115E-5,0
